{
  "norad_id": 68108,
  "name": "STARLINK-37017",
  "history": [
    {
      "epoch": "2026-03-28T19:55:01.626816Z",
      "apogee_km": 344.9424102992916,
      "perigee_km": 342.96248607322286,
      "latitude_deg": -1.7702761861316954e-05,
      "longitude_deg": -76.07967904288469,
      "height_km": 347.4349898618416,
      "semi_major_axis_km": 6722.089448186257,
      "eccentricity": 0.00014727,
      "inclination_deg": 97.2841,
      "raan_deg": 48.9218,
      "arg_perigee_deg": 108.6323,
      "mean_anomaly_deg": 251.5102,
      "mean_motion_rev_day": 15.75238549
    },
    {
      "epoch": "2026-03-29T03:32:28.205952Z",
      "apogee_km": 346.0180909443179,
      "perigee_km": 343.7927639008403,
      "latitude_deg": -6.411777392299523e-05,
      "longitude_deg": 169.57987186742437,
      "height_km": 348.3503822049176,
      "semi_major_axis_km": 6723.042427422579,
      "eccentricity": 0.0001655,
      "inclination_deg": 97.2841,
      "raan_deg": 49.2552,
      "arg_perigee_deg": 104.5484,
      "mean_anomaly_deg": 255.5964,
      "mean_motion_rev_day": 15.7490363
    },
    {
      "epoch": "2026-03-30T04:00:01.999584Z",
      "apogee_km": 358.9745358733044,
      "perigee_km": 357.1409436651402,
      "latitude_deg": 5.278547083033993,
      "longitude_deg": 162.07548542422512,
      "height_km": 360.83203608300965,
      "semi_major_axis_km": 6736.194739769222,
      "eccentricity": 0.0001361,
      "inclination_deg": 97.2843,
      "raan_deg": 50.319,
      "arg_perigee_deg": 104.472,
      "mean_anomaly_deg": 260.956,
      "mean_motion_rev_day": 15.70293421
    },
    {
      "epoch": "2026-03-30T06:00:02.000160Z",
      "apogee_km": 360.24443551695003,
      "perigee_km": 358.0402672043592,
      "latitude_deg": 63.01200100062248,
      "longitude_deg": -32.79379340658983,
      "height_km": 368.96222440964254,
      "semi_major_axis_km": 6737.279351360655,
      "eccentricity": 0.00016358,
      "inclination_deg": 97.2842,
      "raan_deg": 50.4058,
      "arg_perigee_deg": 98.6293,
      "mean_anomaly_deg": 17.5246,
      "mean_motion_rev_day": 15.69914242
    },
    {
      "epoch": "2026-03-30T14:00:03.000384Z",
      "apogee_km": 364.28152714618227,
      "perigee_km": 361.6890263409932,
      "latitude_deg": -18.137972166562527,
      "longitude_deg": -169.61919066522978,
      "height_km": 370.40558412437036,
      "semi_major_axis_km": 6741.1222767435875,
      "eccentricity": 0.00019229,
      "inclination_deg": 97.2848,
      "raan_deg": 50.7529,
      "arg_perigee_deg": 99.1882,
      "mean_anomaly_deg": 98.8488,
      "mean_motion_rev_day": 15.68571987
    },
    {
      "epoch": "2026-03-30T22:00:00.999936Z",
      "apogee_km": 368.0999559827551,
      "perigee_km": 365.93354750077106,
      "latitude_deg": -79.23713793898045,
      "longitude_deg": -65.24164328730544,
      "height_km": 396.09774631001125,
      "semi_major_axis_km": 6745.153751741763,
      "eccentricity": 0.00016059,
      "inclination_deg": 97.2841,
      "raan_deg": 51.0992,
      "arg_perigee_deg": 100.1806,
      "mean_anomaly_deg": 177.869,
      "mean_motion_rev_day": 15.6716593
    },
    {
      "epoch": "2026-03-31T20:00:01.999008Z",
      "apogee_km": 379.2904771654157,
      "perigee_km": 377.1365526212667,
      "latitude_deg": 39.55076648314719,
      "longitude_deg": -83.19238438554311,
      "height_km": 383.28834233877905,
      "semi_major_axis_km": 6756.350514893341,
      "eccentricity": 0.0001594,
      "inclination_deg": 97.2852,
      "raan_deg": 52.0472,
      "arg_perigee_deg": 92.632,
      "mean_anomaly_deg": 307.2295,
      "mean_motion_rev_day": 15.63271835
    },
    {
      "epoch": "2026-04-01T20:00:01.999008Z",
      "apogee_km": 391.61338511898157,
      "perigee_km": 389.13204945662346,
      "latitude_deg": -74.68003877839921,
      "longitude_deg": 75.22751185388734,
      "height_km": 418.7161595299376,
      "semi_major_axis_km": 6768.509717287802,
      "eccentricity": 0.0001833,
      "inclination_deg": 97.2848,
      "raan_deg": 53.0749,
      "arg_perigee_deg": 101.9832,
      "mean_anomaly_deg": 154.3589,
      "mean_motion_rev_day": 15.59061248
    },
    {
      "epoch": "2026-04-02T20:00:01.999008Z",
      "apogee_km": 403.9292265532031,
      "perigee_km": 401.35659865436264,
      "latitude_deg": 79.46836396379223,
      "longitude_deg": 146.056072880146,
      "height_km": 414.70050464020693,
      "semi_major_axis_km": 6780.779912603783,
      "eccentricity": 0.0001897,
      "inclination_deg": 97.2855,
      "raan_deg": 54.0961,
      "arg_perigee_deg": 86.1751,
      "mean_anomaly_deg": 11.5165,
      "mean_motion_rev_day": 15.54831352
    },
    {
      "epoch": "2026-04-02T22:00:01.999584Z",
      "apogee_km": 404.8824685598847,
      "perigee_km": 402.20750191762636,
      "latitude_deg": -23.84083689041236,
      "longitude_deg": 69.69321405668458,
      "height_km": 412.98009374951914,
      "semi_major_axis_km": 6781.681985238755,
      "eccentricity": 0.00019722,
      "inclination_deg": 97.2854,
      "raan_deg": 54.1806,
      "arg_perigee_deg": 99.0846,
      "mean_anomaly_deg": 104.6866,
      "mean_motion_rev_day": 15.54521136
    },
    {
      "epoch": "2026-04-03T20:00:01.999008Z",
      "apogee_km": 416.0435331499357,
      "perigee_km": 413.72711253784564,
      "latitude_deg": -74.47063654442246,
      "longitude_deg": -49.83303591787726,
      "height_km": 443.22073319657034,
      "semi_major_axis_km": 6793.02232284389,
      "eccentricity": 0.0001705,
      "inclination_deg": 97.2851,
      "raan_deg": 55.1112,
      "arg_perigee_deg": 98.225,
      "mean_anomaly_deg": 185.6648,
      "mean_motion_rev_day": 15.50630062
    },
    {
      "epoch": "2026-04-04T20:00:01.999008Z",
      "apogee_km": 428.56829954302884,
      "perigee_km": 425.92917095489975,
      "latitude_deg": 81.24132252771297,
      "longitude_deg": 158.57608644862,
      "height_km": 439.3978724397367,
      "semi_major_axis_km": 6805.385735248964,
      "eccentricity": 0.0001939,
      "inclination_deg": 97.2857,
      "raan_deg": 56.1228,
      "arg_perigee_deg": 90.9661,
      "mean_anomaly_deg": 3.9872,
      "mean_motion_rev_day": 15.46406414
    },
    {
      "epoch": "2026-04-05T14:00:03.000384Z",
      "apogee_km": 437.9870843678091,
      "perigee_km": 434.85892874240017,
      "latitude_deg": -56.17252695860662,
      "longitude_deg": 23.914411466223797,
      "height_km": 459.69436010439483,
      "semi_major_axis_km": 6814.560006555104,
      "eccentricity": 0.00022952,
      "inclination_deg": 97.2855,
      "raan_deg": 56.8774,
      "arg_perigee_deg": 100.0999,
      "mean_anomaly_deg": 203.28,
      "mean_motion_rev_day": 15.43284633
    },
    {
      "epoch": "2026-04-05T20:00:03.000384Z",
      "apogee_km": 441.2029088535028,
      "perigee_km": 438.0721867811444,
      "latitude_deg": -69.82138085496764,
      "longitude_deg": 82.74313466546698,
      "height_km": 467.20834386285117,
      "semi_major_axis_km": 6817.774547817324,
      "eccentricity": 0.0002296,
      "inclination_deg": 97.2851,
      "raan_deg": 57.1276,
      "arg_perigee_deg": 93.9802,
      "mean_anomaly_deg": 156.9726,
      "mean_motion_rev_day": 15.42193287
    },
    {
      "epoch": "2026-04-06T06:00:02.000160Z",
      "apogee_km": 446.16672432209816,
      "perigee_km": 443.61218321780507,
      "latitude_deg": 41.06457501455047,
      "longitude_deg": 126.6278851964642,
      "height_km": 450.3741341687183,
      "semi_major_axis_km": 6823.026453769951,
      "eccentricity": 0.0001872,
      "inclination_deg": 97.2854,
      "raan_deg": 57.5398,
      "arg_perigee_deg": 106.1045,
      "mean_anomaly_deg": 295.2941,
      "mean_motion_rev_day": 15.40413015
    },
    {
      "epoch": "2026-04-07T20:00:00.999360Z",
      "apogee_km": 466.78445679104425,
      "perigee_km": 464.702548342163,
      "latitude_deg": 22.452773866342888,
      "longitude_deg": 106.01173881587651,
      "height_km": 468.3965515750289,
      "semi_major_axis_km": 6843.880502566603,
      "eccentricity": 0.0001521,
      "inclination_deg": 97.285,
      "raan_deg": 59.109,
      "arg_perigee_deg": 81.3396,
      "mean_anomaly_deg": 76.015,
      "mean_motion_rev_day": 15.33377672
    },
    {
      "epoch": "2026-04-08T14:00:04.999680Z",
      "apogee_km": 466.7413370581862,
      "perigee_km": 464.4742781532186,
      "latitude_deg": -24.99362324174873,
      "longitude_deg": 16.379123624000954,
      "height_km": 475.61038707158957,
      "semi_major_axis_km": 6843.744807605703,
      "eccentricity": 0.00016563,
      "inclination_deg": 97.2846,
      "raan_deg": 59.8464,
      "arg_perigee_deg": 92.3382,
      "mean_anomaly_deg": 242.7231,
      "mean_motion_rev_day": 15.33423277
    },
    {
      "epoch": "2026-04-09T20:00:01.999008Z",
      "apogee_km": 466.9132249412314,
      "perigee_km": 464.344075316174,
      "latitude_deg": 30.699436951077534,
      "longitude_deg": -81.3344131856361,
      "height_km": 468.9150463249237,
      "semi_major_axis_km": 6843.765650128703,
      "eccentricity": 0.0001877,
      "inclination_deg": 97.2848,
      "raan_deg": 61.0786,
      "arg_perigee_deg": 86.0099,
      "mean_anomaly_deg": 304.9268,
      "mean_motion_rev_day": 15.33416272
    },
    {
      "epoch": "2026-04-10T12:00:02.000160Z",
      "apogee_km": 466.7391609224478,
      "perigee_km": 464.2836598727972,
      "latitude_deg": 69.95161807537505,
      "longitude_deg": -116.61786168159394,
      "height_km": 476.3976067012723,
      "semi_major_axis_km": 6843.648410397623,
      "eccentricity": 0.0001794,
      "inclination_deg": 97.2847,
      "raan_deg": 61.7366,
      "arg_perigee_deg": 105.1591,
      "mean_anomaly_deg": 3.655,
      "mean_motion_rev_day": 15.33455676
    }
  ]
}